start=new Date('2022-10-11T00:00:00.000Z').valueOf();
sats=[{"EPOCH":"2022-10-10T07:03:58.807296","ECCENTRICITY":"0.00015690","RA_OF_ASC_NODE":"251.9120","REV_AT_EPOCH":"13092","CENTER_NAME":"EARTH","MEAN_ELEMENT_THEORY":"SGP4","PERIOD":"95.592","COUNTRY_CODE":"US","RCS_SIZE":"LARGE","ELEMENT_SET_NO":"999","EPHEMERIS_TYPE":"0","MEAN_MOTION":"15.06396854","MEAN_MOTION_DDOT":"0.0000000000000","INCLINATION":"53.0537","TLE_LINE1":"1 45689U 20035AJ  22283.29443064 -.00001004  00000-0 -48498-4 0  9995","ARG_OF_PERICENTER":"72.4486","MEAN_MOTION_DOT":"-0.00001004","OBJECT_TYPE":"PAYLOAD","LAUNCH_DATE":"2020-06-04","PERIAPSIS":"546.137","REF_FRAME":"TEME","OBJECT_ID":"2020-035AJ","GP_ID":"214673887","APOAPSIS":"548.310","CLASSIFICATION_TYPE":"U","BSTAR":"-0.00004849800000","SITE":"AFETR","NORAD_CAT_ID":"45689","TLE_LINE2":"2 45689  53.0537 251.9120 0001569  72.4486 287.6674 15.06396854130921","OBJECT_NAME":"STARLINK-1413","DECAY_DATE":null,"MEAN_ANOMALY":"287.6674","FILE":"3600948","SEMIMAJOR_AXIS":"6925.358","TIME_SYSTEM":"UTC"},{"OBJECT_NAME":"STARLINK-1414","TLE_LINE2":"2 45690  52.9993 252.0330 0001283  81.1473 278.9660 15.05585726130956","SITE":"AFETR","NORAD_CAT_ID":"45690","SEMIMAJOR_AXIS":"6927.845","TIME_SYSTEM":"UTC","MEAN_ANOMALY":"278.9660","DECAY_DATE":null,"FILE":"3600948","MEAN_MOTION_DOT":"0.00000565","OBJECT_TYPE":"PAYLOAD","LAUNCH_DATE":"2020-06-04","PERIAPSIS":"548.821","ARG_OF_PERICENTER":"81.1473","CLASSIFICATION_TYPE":"U","BSTAR":"0.00005795200000","REF_FRAME":"TEME","OBJECT_ID":"2020-035AK","GP_ID":"214673638","APOAPSIS":"550.599","RCS_SIZE":"LARGE","ELEMENT_SET_NO":"999","EPHEMERIS_TYPE":"0","MEAN_MOTION":"15.05585726","MEAN_MOTION_DDOT":"0.0000000000000","INCLINATION":"52.9993","PERIOD":"95.644","COUNTRY_CODE":"US","TLE_LINE1":"1 45690U 20035AK  22283.26853131  .00000565  00000-0  57952-4 0  9998","RA_OF_ASC_NODE":"252.0330","REV_AT_EPOCH":"13095","CENTER_NAME":"EARTH","EPOCH":"2022-10-10T06:26:41.105184","ECCENTRICITY":"0.00012830","MEAN_ELEMENT_THEORY":"SGP4"},{"TLE_LINE2":"2 45691  53.0547 249.2856 0001529  64.6983 295.4164 15.06395243131105","OBJECT_NAME":"STARLINK-1415","SITE":"AFETR","NORAD_CAT_ID":"45691","SEMIMAJOR_AXIS":"6925.363","TIME_SYSTEM":"UTC","FILE":"3601747","MEAN_ANOMALY":"295.4164","DECAY_DATE":null,"LAUNCH_DATE":"2020-06-04","PERIAPSIS":"546.169","OBJECT_TYPE":"PAYLOAD","MEAN_MOTION_DOT":"0.00001170","ARG_OF_PERICENTER":"64.6983","BSTAR":"0.00009745400000","CLASSIFICATION_TYPE":"U","APOAPSIS":"548.287","OBJECT_ID":"2020-035AL","GP_ID":"214714906","REF_FRAME":"TEME","INCLINATION":"53.0547","MEAN_MOTION_DDOT":"0.0000000000000","MEAN_MOTION":"15.06395243","EPHEMERIS_TYPE":"0","ELEMENT_SET_NO":"999","RCS_SIZE":"LARGE","COUNTRY_CODE":"US","PERIOD":"95.592","TLE_LINE1":"1 45691U 20035AL  22283.87680883  .00001170  00000-0  97454-4 0  9992","CENTER_NAME":"EARTH","REV_AT_EPOCH":"13110","RA_OF_ASC_NODE":"249.2856","ECCENTRICITY":"0.00015290","EPOCH":"2022-10-10T21:02:36.282912","MEAN_ELEMENT_THEORY":"SGP4"},{"BSTAR":"0.00006660700000","CLASSIFICATION_TYPE":"U","APOAPSIS":"548.368","GP_ID":"214715638","OBJECT_ID":"2020-035AM","REF_FRAME":"TEME","LAUNCH_DATE":"2020-06-04","PERIAPSIS":"546.122","OBJECT_TYPE":"PAYLOAD","MEAN_MOTION_DOT":"0.00000710","ARG_OF_PERICENTER":"66.8954","SEMIMAJOR_AXIS":"6925.380","TIME_SYSTEM":"UTC","FILE":"3601747","DECAY_DATE":null,"MEAN_ANOMALY":"293.2206","TLE_LINE2":"2 45692  53.0546 250.5054 0001621  66.8954 293.2206 15.06389719131053","OBJECT_NAME":"STARLINK-1416","SITE":"AFETR","NORAD_CAT_ID":"45692","MEAN_ELEMENT_THEORY":"SGP4","CENTER_NAME":"EARTH","REV_AT_EPOCH":"13105","RA_OF_ASC_NODE":"250.5054","ECCENTRICITY":"0.00016210","EPOCH":"2022-10-10T14:29:50.429760","TLE_LINE1":"1 45692U 20035AM  22283.60405590  .00000710  00000-0  66607-4 0  9999","MEAN_MOTION_DDOT":"0.0000000000000","INCLINATION":"53.0546","EPHEMERIS_TYPE":"0","MEAN_MOTION":"15.06389719","ELEMENT_SET_NO":"999","RCS_SIZE":"LARGE","COUNTRY_CODE":"US","PERIOD":"95.593"},{"SITE":"AFETR","NORAD_CAT_ID":"45693","TLE_LINE2":"2 45693  53.0540 249.2515 0001547  86.0671 274.0495 15.06397014131090","OBJECT_NAME":"STARLINK-1417","FILE":"3601747","MEAN_ANOMALY":"274.0495","DECAY_DATE":null,"TIME_SYSTEM":"UTC","SEMIMAJOR_AXIS":"6925.358","ARG_OF_PERICENTER":"86.0671","OBJECT_TYPE":"PAYLOAD","PERIAPSIS":"546.151","LAUNCH_DATE":"2020-06-04","MEAN_MOTION_DOT":"0.00001236","APOAPSIS":"548.294","REF_FRAME":"TEME","GP_ID":"214714405","OBJECT_ID":"2020-035AN","CLASSIFICATION_TYPE":"U","BSTAR":"0.00010190000000","COUNTRY_CODE":"US","PERIOD":"95.592","EPHEMERIS_TYPE":"0","MEAN_MOTION":"15.06397014","INCLINATION":"53.0540","MEAN_MOTION_DDOT":"0.0000000000000","RCS_SIZE":"LARGE","ELEMENT_SET_NO":"999","TLE_LINE1":"1 45693U 20035AN  22283.88786620  .00001236  00000-0  10190-3 0  9995","ECCENTRICITY":"0.00015470","EPOCH":"2022-10-10T21:18:31.639680","CENTER_NAME":"EARTH","RA_OF_ASC_NODE":"249.2515","REV_AT_EPOCH":"13109","MEAN_ELEMENT_THEORY":"SGP4"},{"TLE_LINE1":"1 45694U 20035AP  22283.18881240  .00040756  00000-0  25848-2 0  9998","ELEMENT_SET_NO":"999","RCS_SIZE":"LARGE","MEAN_MOTION_DDOT":"0.0000000000000","INCLINATION":"53.0523","MEAN_MOTION":"15.08541244","EPHEMERIS_TYPE":"0","PERIOD":"95.456","COUNTRY_CODE":"US","MEAN_ELEMENT_THEORY":"SGP4","REV_AT_EPOCH":"13099","RA_OF_ASC_NODE":"251.9123","CENTER_NAME":"EARTH","EPOCH":"2022-10-10T04:31:53.391360","ECCENTRICITY":"0.00021740","SEMIMAJOR_AXIS":"6918.794","TIME_SYSTEM":"UTC","DECAY_DATE":null,"MEAN_ANOMALY":"285.5406","FILE":"3600948","OBJECT_NAME":"STARLINK-1419","TLE_LINE2":"2 45694  53.0523 251.9123 0002174  74.5824 285.5406 15.08541244130991","SITE":"AFETR","NORAD_CAT_ID":"45694","BSTAR":"0.00258480000000","CLASSIFICATION_TYPE":"U","OBJECT_ID":"2020-035AP","GP_ID":"214674138","REF_FRAME":"TEME","APOAPSIS":"542.163","MEAN_MOTION_DOT":"0.00040756","LAUNCH_DATE":"2020-06-04","PERIAPSIS":"539.155","OBJECT_TYPE":"PAYLOAD","ARG_OF_PERICENTER":"74.5824"},{"SEMIMAJOR_AXIS":"6925.362","TIME_SYSTEM":"UTC","FILE":"3601747","DECAY_DATE":null,"MEAN_ANOMALY":"291.5404","TLE_LINE2":"2 45695  53.0558 230.7174 0001440  68.5739 291.5404 15.06395497131333","OBJECT_NAME":"STARLINK-1420","SITE":"AFETR","NORAD_CAT_ID":"45695","CLASSIFICATION_TYPE":"U","BSTAR":"0.00009847000000","APOAPSIS":"548.225","REF_FRAME":"TEME","GP_ID":"214715407","OBJECT_ID":"2020-035AQ","OBJECT_TYPE":"PAYLOAD","PERIAPSIS":"546.230","LAUNCH_DATE":"2020-06-04","MEAN_MOTION_DOT":"0.00001185","ARG_OF_PERICENTER":"68.5739","TLE_LINE1":"1 45695U 20035AQ  22283.55702944  .00001185  00000-0  98470-4 0  9999","MEAN_MOTION":"15.06395497","EPHEMERIS_TYPE":"0","MEAN_MOTION_DDOT":"0.0000000000000","INCLINATION":"53.0558","RCS_SIZE":"LARGE","ELEMENT_SET_NO":"999","COUNTRY_CODE":"US","PERIOD":"95.592","MEAN_ELEMENT_THEORY":"SGP4","CENTER_NAME":"EARTH","RA_OF_ASC_NODE":"230.7174","REV_AT_EPOCH":"13133","ECCENTRICITY":"0.00014400","EPOCH":"2022-10-10T13:22:07.343616"},{"DECAY_DATE":null,"MEAN_ANOMALY":"292.4512","FILE":"3601747","SEMIMAJOR_AXIS":"6925.352","TIME_SYSTEM":"UTC","SITE":"AFETR","NORAD_CAT_ID":"45696","OBJECT_NAME":"STARLINK-1422","TLE_LINE2":"2 45696  53.0548 250.3741 0001603  67.6647 292.4512 15.06398807131057","GP_ID":"214715138","OBJECT_ID":"2020-035AR","REF_FRAME":"TEME","APOAPSIS":"548.327","BSTAR":"0.00013221000000","CLASSIFICATION_TYPE":"U","ARG_OF_PERICENTER":"67.6647","MEAN_MOTION_DOT":"0.00001688","LAUNCH_DATE":"2020-06-04","PERIAPSIS":"546.107","OBJECT_TYPE":"PAYLOAD","TLE_LINE1":"1 45696U 20035AR  22283.63353411  .00001688  00000-0  13221-3 0  9998","PERIOD":"95.592","COUNTRY_CODE":"US","ELEMENT_SET_NO":"999","RCS_SIZE":"LARGE","MEAN_MOTION_DDOT":"0.0000000000000","INCLINATION":"53.0548","MEAN_MOTION":"15.06398807","EPHEMERIS_TYPE":"0","MEAN_ELEMENT_THEORY":"SGP4","EPOCH":"2022-10-10T15:12:17.347104","ECCENTRICITY":"0.00016030","REV_AT_EPOCH":"13105","RA_OF_ASC_NODE":"250.3741","CENTER_NAME":"EARTH"},{"ARG_OF_PERICENTER":"76.6747","MEAN_MOTION_DOT":"-0.00000756","LAUNCH_DATE":"2020-06-04","PERIAPSIS":"546.408","OBJECT_TYPE":"PAYLOAD","GP_ID":"214713907","OBJECT_ID":"2020-035AS","REF_FRAME":"TEME","APOAPSIS":"548.080","BSTAR":"-0.00003189600000","CLASSIFICATION_TYPE":"U","SITE":"AFETR","NORAD_CAT_ID":"45697","TLE_LINE2":"2 45697  53.0538 229.3115 0001207  76.6747 283.4376 15.06390119131381","OBJECT_NAME":"STARLINK-1351","DECAY_DATE":null,"MEAN_ANOMALY":"283.4376","FILE":"3601747","SEMIMAJOR_AXIS":"6925.379","TIME_SYSTEM":"UTC","EPOCH":"2022-10-10T20:59:57.478848","ECCENTRICITY":"0.00012070","REV_AT_EPOCH":"13138","RA_OF_ASC_NODE":"229.3115","CENTER_NAME":"EARTH","MEAN_ELEMENT_THEORY":"SGP4","PERIOD":"95.593","COUNTRY_CODE":"US","ELEMENT_SET_NO":"999","RCS_SIZE":"LARGE","MEAN_MOTION_DDOT":"0.0000000000000","INCLINATION":"53.0538","MEAN_MOTION":"15.06390119","EPHEMERIS_TYPE":"0","TLE_LINE1":"1 45697U 20035AS  22283.87497082 -.00000756  00000-0 -31896-4 0  9994"},{"ARG_OF_PERICENTER":"76.5434","OBJECT_TYPE":"PAYLOAD","LAUNCH_DATE":"2020-06-04","PERIAPSIS":"546.244","MEAN_MOTION_DOT":"-0.00000621","APOAPSIS":"548.251","REF_FRAME":"TEME","GP_ID":"214714656","OBJECT_ID":"2020-035AT","CLASSIFICATION_TYPE":"U","BSTAR":"-0.00002280100000","SITE":"AFETR","NORAD_CAT_ID":"45698","TLE_LINE2":"2 45698  53.0554 230.5366 0001449  76.5434 283.5717 15.06388928131343","OBJECT_NAME":"STARLINK-1370","FILE":"3601747","DECAY_DATE":null,"MEAN_ANOMALY":"283.5717","SEMIMAJOR_AXIS":"6925.382","TIME_SYSTEM":"UTC","ECCENTRICITY":"0.00014490","EPOCH":"2022-10-10T14:20:31.211808","CENTER_NAME":"EARTH","RA_OF_ASC_NODE":"230.5366","REV_AT_EPOCH":"13134","MEAN_ELEMENT_THEORY":"SGP4","COUNTRY_CODE":"US","PERIOD":"95.593","MEAN_MOTION":"15.06388928","EPHEMERIS_TYPE":"0","INCLINATION":"53.0554","MEAN_MOTION_DDOT":"0.0000000000000","RCS_SIZE":"LARGE","ELEMENT_SET_NO":"999","TLE_LINE1":"1 45698U 20035AT  22283.59758347 -.00000621  00000-0 -22801-4 0  9995"}];
